[{"OBJECT_NAME":"STARLINK-4258","OBJECT_ID":"2022-083BA","EPOCH":"2026-03-09T10:28:22.677312","MEAN_MOTION":15.08837411,"ECCENTRICITY":0.00015108,"INCLINATION":53.2186,"RA_OF_ASC_NODE":125.1293,"ARG_OF_PERICENTER":96.6947,"MEAN_ANOMALY":263.4217,"EPHEMERIS_TYPE":0,"CLASSIFICATION_TYPE":"U","NORAD_CAT_ID":53180,"ELEMENT_SET_NO":999,"REV_AT_EPOCH":20187,"BSTAR":-3.3853939e-5,"MEAN_MOTION_DOT":-8.27e-6,"MEAN_MOTION_DDOT":0},{"OBJECT_NAME":"YUNYAO-1 44","OBJECT_ID":"2025-059B","EPOCH":"2026-03-09T23:37:33.233088","MEAN_MOTION":15.10344945,"ECCENTRICITY":0.00180831,"INCLINATION":97.6069,"RA_OF_ASC_NODE":250.8958,"ARG_OF_PERICENTER":135.5449,"MEAN_ANOMALY":224.7236,"EPHEMERIS_TYPE":0,"CLASSIFICATION_TYPE":"U","NORAD_CAT_ID":63345,"ELEMENT_SET_NO":999,"REV_AT_EPOCH":5332,"BSTAR":0.0003556422,"MEAN_MOTION_DOT":5.791e-5,"MEAN_MOTION_DDOT":0}]
